KUIPER-00383            
1 69268U 26118B   26176.83335647  .00005298  00000+0  16812-3 0  9994
2 69268  51.8598  11.9086 0010546 218.0101 232.8246 15.34298452  4748
KUIPER-00527            
1 69269U 26118C   26176.54931743  .00029925  00000+0  87910-3 0  9992
2 69269  51.8627  13.1997 0009512 202.6781 157.3785 15.34837978  5260
KUIPER-00562            
1 69270U 26118D   26176.55946848  .00038146  00000+0  98221-3 0  9999
2 69270  51.8720  12.5412 0001319 134.3702 225.7394 15.38854748  5277
KUIPER-00570            
1 69271U 26118E   26174.14294476  .00489113  00000+0  13187-1 0  9996
2 69271  51.8587  24.8191 0009050 241.2053 118.8024 15.35254459  4895
KUIPER-00572            
1 69272U 26118F   26176.84764830  .00024581  00000+0  67195-3 0  9996
2 69272  51.8671  11.4671 0007132 203.5412 156.5249 15.37216981  5310
KUIPER-00581            
1 69273U 26118G   26176.85365721  .00028061  00000+0  77382-3 0  9990
2 69273  51.8657  11.5030 0008821 208.1883 151.8627 15.36858038  5406
KUIPER-00584            
1 69274U 26118H   26176.83335647 -.00787670  00000+0 -32277-1 0  9995
2 69274  51.8667  12.0116 0011827 228.2620 157.4951 15.26200338  3909
KUIPER-00587            
1 69275U 26118J   26176.72302905  .00045475  00000+0  12474-2 0  9991
2 69275  51.8642  12.1227 0007900 212.7814 147.2684 15.36794137  5297
KUIPER-00590            
1 69276U 26118K   26176.70205073  .00017048  00000+0  45646-3 0  9991
2 69276  51.8686  11.9984 0003831 192.3737 167.7157 15.38121883  5295
KUIPER-00592            
1 69277U 26118L   26176.82845895  .00016346  00000+0  43547-3 0  9995
2 69277  51.8710  11.3480 0003218 167.4392 192.6676 15.38311397  5315
KUIPER-00593            
1 69278U 26118M   26176.69948416  .00035701  00000+0  93735-3 0  9994
2 69278  51.8706  11.9818 0003635 193.0540 167.0353 15.38282786  5356
KUIPER-00594            
1 69279U 26118N   26176.55844340  .00046798  00000+0  12054-2 0  9993
2 69279  51.8696  12.5386 0001339  75.9017 284.2119 15.38750643  5273
KUIPER-00595            
1 69280U 26118P   26176.56118034  .00036250  00000+0  93813-3 0  9995
2 69280  51.8699  12.5559 0001598 254.9472 105.1338 15.38723146  5307
KUIPER-00596            
1 69281U 26118Q   26176.55409698  .00037919  00000+0  11582-2 0  9999
2 69281  51.8633  13.2337 0010571 209.6685 150.3701 15.33478797  5267
KUIPER-00597            
1 69282U 26118R   26176.84586596  .00027362  00000+0  74604-3 0  9991
2 69282  51.8649  11.4522 0006819 205.3437 154.7215 15.37238447  5313
KUIPER-00599            
1 69283U 26118S   26176.71139579  .00025465  00000+0  69015-3 0  9995
2 69283  51.8697  12.0575 0005920 201.4188 158.6552 15.37471267  5297
KUIPER-00600            
1 69284U 26118T   26176.72204816  .00034292  00000+0  94216-3 0  9993
2 69284  51.8649  12.1184 0008473 205.4192 154.6378 15.36871438  5292
KUIPER-00601            
1 69285U 26118U   26176.83624971  .00032956  00000+0  87984-3 0  9993
2 69285  51.8679  11.3968 0004613 189.7634 170.3264 15.37803805  5310
KUIPER-00602            
1 69286U 26118V   26176.69719042  .00031812  00000+0  83375-3 0  9992
2 69286  51.8684  11.9673 0002580 177.8056 182.2943 15.38397362  5293
KUIPER-00603            
1 69287U 26118W   26176.83769713  .00029553  00000+0  79061-3 0  9995
2 69287  51.8650  11.4026 0005204 196.5436 163.5382 15.37794073  5311
KUIPER-00605            
1 69288U 26118X   26176.84639563  .00032525  00000+0  88315-3 0  9991
2 69288  51.8663  11.4568 0007254 201.6481 158.4200 15.37272240  5311
KUIPER-00606            
1 69289U 26118Y   26176.70451412  .00023774  00000+0  63637-3 0  9998
2 69289  51.8696  12.0131 0004382 191.2128 168.8761 15.37902193  5293
KUIPER-00607            
1 69290U 26118Z   26176.83969227  .00035561  00000+0  95466-3 0  9994
2 69290  51.8659  11.4169 0005623 197.9606 162.1183 15.37590896  5312
KUIPER-00608            
1 69291U 26118AA  26176.80446685  .00055702  00000+0  16126-2 0  9994
2 69291  51.8611  11.9096 0007870 216.0660 143.9795 15.35019309  5302
KUIPER-00610            
1 69292U 26118AB  26176.37018767  .00051965  00000+0  13516-2 0  9990
2 69292  51.8710  13.5262 0001983 168.9948 191.1083 15.38405394  5243
KUIPER-00613            
1 69293U 26118AC  26176.81318272  .00027477  00000+0  81620-3 0  9997
2 69293  51.8584  11.9593 0011048 215.7234 144.3013 15.34518557  5306
KUIPER-00618            
1 69294U 26118AD  26176.55905007 -.00337858  00000+0 -93469-2 0  9999
2 69294  51.8690  12.5402 0002789 144.4493 215.6680 15.37800777  5277
KUIPER-00620            
1 69295U 26118AE  26176.69420208  .00031348  00000+0  82388-3 0  9992
2 69295  51.8710  11.9470 0001329 148.7220 211.3846 15.38320809  5296
STARLINK-37501          
1 69296U 26119A   26176.87364456 -.00430852  00000+0 -10565-1 0  9997
2 69296  97.2858 202.7784 0002418  45.4787 314.6658 15.42358150  5386
STARLINK-37496          
1 69297U 26119B   26176.83335647  .00066454  00000+0  12152-2 0  9990
2 69297  97.2859 202.7521 0001134  90.9247  74.7638 15.49142338  5273
