OBJECT_NAME,OBJECT_ID,EPOCH,MEAN_MOTION,ECCENTRICITY,INCLINATION,RA_OF_ASC_NODE,ARG_OF_PERICENTER,MEAN_ANOMALY,EPHEMERIS_TYPE,CLASSIFICATION_TYPE,NORAD_CAT_ID,ELEMENT_SET_NO,REV_AT_EPOCH,BSTAR,MEAN_MOTION_DOT,MEAN_MOTION_DDOT
KUIPER-00383,2026-118B,2026-06-25T20:00:01.999008,15.34298452,.0010546,51.8598,11.9086,218.0101,232.8246,0,U,69268,999,474,.16812E-3,.5298E-4,0
KUIPER-00527,2026-118C,2026-06-25T13:11:01.025952,15.34837978,.0009512,51.8627,13.1997,202.6781,157.3785,0,U,69269,999,526,.8791E-3,.29925E-3,0
KUIPER-00562,2026-118D,2026-06-25T13:25:38.076672,15.38854748,.0001319,51.8720,12.5412,134.3702,225.7394,0,U,69270,999,527,.98221E-3,.38146E-3,0
KUIPER-00570,2026-118E,2026-06-23T03:25:50.427264,15.35254459,.00090509,51.8587,24.8191,241.2053,118.8024,0,U,69271,999,489,.13187335E-1,.489113E-2,0
KUIPER-00572,2026-118F,2026-06-25T20:20:36.813120,15.37216981,.0007132,51.8671,11.4671,203.5412,156.5249,0,U,69272,999,531,.67195E-3,.24581E-3,0
KUIPER-00581,2026-118G,2026-06-25T20:29:15.982944,15.36858038,.0008821,51.8657,11.5030,208.1883,151.8627,0,U,69273,999,540,.77382E-3,.28061E-3,0
KUIPER-00584,2026-118H,2026-06-25T20:00:01.999008,15.26200338,.0011827,51.8667,12.0116,228.2620,157.4951,0,U,69274,999,390,-.32277E-1,-.78767E-2,0
KUIPER-00587,2026-118J,2026-06-25T17:21:09.709920,15.36794137,.00079,51.8642,12.1227,212.7814,147.2684,0,U,69275,999,529,.12474E-2,.45475E-3,0
KUIPER-00590,2026-118K,2026-06-25T16:50:57.183072,15.38121883,.0003831,51.8686,11.9984,192.3737,167.7157,0,U,69276,999,529,.45646E-3,.17048E-3,0
KUIPER-00592,2026-118L,2026-06-25T19:52:58.853280,15.38311397,.0003218,51.8710,11.3480,167.4392,192.6676,0,U,69277,999,531,.43547E-3,.16346E-3,0
KUIPER-00593,2026-118M,2026-06-25T16:47:15.431424,15.38282786,.0003635,51.8706,11.9818,193.0540,167.0353,0,U,69278,999,535,.93735E-3,.35701E-3,0
KUIPER-00594,2026-118N,2026-06-25T13:24:09.509760,15.38750643,.0001339,51.8696,12.5386,75.9017,284.2119,0,U,69279,999,527,.12054E-2,.46798E-3,0
KUIPER-00595,2026-118P,2026-06-25T13:28:05.981376,15.38723146,.0001598,51.8699,12.5559,254.9472,105.1338,0,U,69280,999,530,.93813E-3,.3625E-3,0
KUIPER-00596,2026-118Q,2026-06-25T13:17:53.979072,15.33478797,.0010571,51.8633,13.2337,209.6685,150.3701,0,U,69281,999,526,.11582E-2,.37919E-3,0
KUIPER-00597,2026-118R,2026-06-25T20:18:02.818944,15.37238447,.0006819,51.8649,11.4522,205.3437,154.7215,0,U,69282,999,531,.74604E-3,.27362E-3,0
KUIPER-00599,2026-118S,2026-06-25T17:04:24.596256,15.37471267,.000592,51.8697,12.0575,201.4188,158.6552,0,U,69283,999,529,.69015E-3,.25465E-3,0
KUIPER-00600,2026-118T,2026-06-25T17:19:44.961024,15.36871438,.0008473,51.8649,12.1184,205.4192,154.6378,0,U,69284,999,529,.94216E-3,.34292E-3,0
KUIPER-00601,2026-118U,2026-06-25T20:04:11.974944,15.37803805,.0004613,51.8679,11.3968,189.7634,170.3264,0,U,69285,999,531,.87984E-3,.32956E-3,0
KUIPER-00602,2026-118V,2026-06-25T16:43:57.252288,15.38397362,.000258,51.8684,11.9673,177.8056,182.2943,0,U,69286,999,529,.83375E-3,.31812E-3,0
KUIPER-00603,2026-118W,2026-06-25T20:06:17.032032,15.37794073,.0005204,51.8650,11.4026,196.5436,163.5382,0,U,69287,999,531,.79061E-3,.29553E-3,0
KUIPER-00605,2026-118X,2026-06-25T20:18:48.582432,15.37272240,.0007254,51.8663,11.4568,201.6481,158.4200,0,U,69288,999,531,.88315E-3,.32525E-3,0
KUIPER-00606,2026-118Y,2026-06-25T16:54:30.019968,15.37902193,.0004382,51.8696,12.0131,191.2128,168.8761,0,U,69289,999,529,.63637E-3,.23774E-3,0
KUIPER-00607,2026-118Z,2026-06-25T20:09:09.412128,15.37590896,.0005623,51.8659,11.4169,197.9606,162.1183,0,U,69290,999,531,.95466E-3,.35561E-3,0
KUIPER-00608,2026-118AA,2026-06-25T19:18:25.935840,15.35019309,.000787,51.8611,11.9096,216.0660,143.9795,0,U,69291,999,530,.16126E-2,.55702E-3,0
KUIPER-00610,2026-118AB,2026-06-25T08:53:04.214688,15.38405394,.0001983,51.8710,13.5262,168.9948,191.1083,0,U,69292,999,524,.13516E-2,.51965E-3,0
KUIPER-00613,2026-118AC,2026-06-25T19:30:58.987008,15.34518557,.0011048,51.8584,11.9593,215.7234,144.3013,0,U,69293,999,530,.8162E-3,.27477E-3,0
KUIPER-00618,2026-118AD,2026-06-25T13:25:01.926048,15.37800777,.0002789,51.8690,12.5402,144.4493,215.6680,0,U,69294,999,527,-.93469E-2,-.337858E-2,0
KUIPER-00620,2026-118AE,2026-06-25T16:39:39.059712,15.38320809,.0001329,51.8710,11.9470,148.7220,211.3846,0,U,69295,999,529,.82388E-3,.31348E-3,0
STARLINK-37501,2026-119A,2026-06-25T20:58:02.889984,15.42358150,.0002418,97.2858,202.7784,45.4787,314.6658,0,U,69296,999,538,-.10565E-1,-.430852E-2,0
STARLINK-37496,2026-119B,2026-06-25T20:00:01.999008,15.49142338,.0001134,97.2859,202.7521,90.9247,74.7638,0,U,69297,999,527,.12152E-2,.66454E-3,0
